#cP2023  2 27  0  0  0.00000000      96 ORBIT IGS20 HLM  IGS
## 2251  86400.00000000   900.00000000 60002 0.0000000000000
+   32   G01G02G03G04G05G06G07G08G09G10G11G12G13G14G15G16G17
+        G18G19G20G21G22G23G24G25G26G27G28G29G30G31G32  0  0
+          0  0  0  0  0  0  0  0  0  0  0  0  0  0  0  0  0
+          0  0  0  0  0  0  0  0  0  0  0  0  0  0  0  0  0
+          0  0  0  0  0  0  0  0  0  0  0  0  0  0  0  0  0
++         2  2  2  3  2  2  2  2  2  2  2  2  2  2  2  2  2
++         2  2  2  2  3  2  2  2  2  2  2  2  2  2  2  0  0
++         0  0  0  0  0  0  0  0  0  0  0  0  0  0  0  0  0
++         0  0  0  0  0  0  0  0  0  0  0  0  0  0  0  0  0
++         0  0  0  0  0  0  0  0  0  0  0  0  0  0  0  0  0
%c G  cc GPS ccc cccc cccc cccc cccc ccccc ccccc ccccc ccccc
%c cc cc ccc ccc cccc cccc cccc cccc ccccc ccccc ccccc ccccc
%f  1.2500000  1.025000000  0.00000000000  0.000000000000000
%f  0.0000000  0.000000000  0.00000000000  0.000000000000000
%i    0    0    0    0      0      0      0      0         0
%i    0    0    0    0      0      0      0      0         0
/* RAPID ORBIT COMBINATION FROM WEIGHTED AVERAGE OF:        
/* cod emr esa gfz grg jpl ngs sio usn whu                  
/* REFERENCED TO IGS TIME (IGST) AND TO WEIGHTED MEAN POLE: 
/* PCV:IGS20_2233 OL/AL:FES2014b NONE     Y  ORB:CMB CLK:CMB
*  2023  2 27 15  0  0.00000000
PG01  -9181.263534 -13506.160438 -21341.045158    207.959103  8  6  7 107       
PG02  12669.114569  12262.107068  20419.001306   -617.941222  4  4  4  95       
PG03 -12355.944572 -23222.454151  -4228.208045   -357.629881  8  5  5  97       
PG04  -3656.193749 -19462.508905  17655.303427    -18.303587  3  7  5  99       
PG05    504.173905  20259.188098  16935.373733   -117.533713  5  4  3 103       
PG06 -25328.470226   5631.901375   5975.366085    576.870221  7  6  5 110       
PG07 -21909.364013  -8107.673558  13519.094995    233.009813  6  6  6  94       
PG08   4920.761649 -24630.250574  -8056.206872   -110.527837  6  4  7 126       
PG09 -12268.013008  -9586.999852  21440.119702   -210.303773  6  6  8 101       
PG10  18044.983886   3539.073271 -19104.981538    -26.479781  7  6  5 106       
PG11 -16249.429573  12219.117951  17085.007559   -115.848427  7  7  4 102       
PG12   9313.811256  24257.117223  -6029.655027   -345.444810  5  1  5  89       
PG13 -12880.740550  22946.746305  -2878.566159    482.780017  6  7  6  88       
PG14 -18912.560956  -6258.178407 -17624.955181    -16.879542  7  3  4 104       
PG15  -1350.353502  25086.897737  -8632.767232     17.150124  4  5  6  99       
PG16   3985.700786 -18536.031583  18099.044388   -518.081217  5  6  3  94       
PG17 -17451.155159   4730.883937 -19060.383607    702.594229  7  4  5 123       
PG18  24096.838990   5430.378491   9956.454678   -158.353507  8  5  5  85       
PG19 -18779.187808  13570.687518 -12957.700984    283.347621  9  5  6 111       
PG20  -8341.198322  13506.127558  21349.596418    448.108474  5  7  5  96       
PG21   -391.026342 -14986.250711 -21295.273771    154.195302  4  7  5 122       
PG22  17660.761373 -17095.449666  -9400.728399    435.478602  8  8  6  53       
PG23  19637.901029  14027.015983 -11250.969750      8.068611  4  7  6 102       
PG24   5134.496277  15267.591707 -21496.767788    -91.307789  4  5  6 107       
PG25  16702.297171  20629.469703   2673.899720    423.620701  7  5  6  72       
PG26  13781.229847  -7828.475115  21216.899797    241.788180  7  4  4  83       
PG27  12683.649474 -22941.106290   2244.169442     92.474831  7  3  4  91       
PG28  25710.730915  -5471.825279   3748.313158     27.933583 10  8  7  84       
PG29   8748.337144  13349.178383  21165.125527   -588.354863  6  4  6  96       
PG30 -26652.604643    469.284530   1686.743886   -528.820545  3  5  6  87       
PG31  24848.351390  -6555.072140   7416.867710   -210.363565  7  7  6  74       
PG32  17647.994296  -8047.340753 -17885.664490   -408.834646  6  6  4  98       
*  2023  2 27 15 15  0.00000000
PG01  -6791.727223 -13748.908229 -22048.312522    207.955472  8  6  7 106       
PG02  10454.739235  12764.804229  21392.656407   -617.938758  5  4  4  76       
PG03 -11832.950572 -22829.322330  -7014.500555   -357.625009  8  5  5  97       
PG04  -2671.732301 -21116.517183  15826.068709    -18.296050  2  7  5 107       
PG05   -905.896202  18741.697252  18580.712485   -117.534724  6  4  2 107       
PG06 -25852.645693   5520.137118   3132.387279    576.873494  6  6  5 118       
PG07 -20351.305759  -8443.020210  15609.715680    233.003267  6  6  6  97       
PG08   5465.499067 -25235.143685  -5319.349562   -110.530206  6  3  7 120       
PG09 -11277.193286 -11815.379204  20862.155730   -210.297291  6  6  8 103       
PG10  19212.907163   5305.168592 -17533.402395    -26.480857  7  6  5 100       
PG11 -18099.036471  12157.394222  15157.186274   -115.858103  8  8  4 104       
PG12   8702.291270  23687.412583  -8722.680230   -345.448885  5  2  5  94       
PG13 -13164.968341  22943.139568      0.739536    482.784878  6  6  6 104       
PG14 -19845.536091  -7938.796791 -15843.988390    -16.870987  7  3  4  96       
PG15  -1885.462460  25759.308545  -5989.877922     17.153007  4  6  6  78       
PG16   5259.234060 -16707.419758  19517.742424   -518.079583  5  6  3 100       
PG17 -16462.187821   2619.143472 -20272.439247    702.596293  6  4  5 128       
PG18  22843.797949   5721.758095  12426.951888   -158.367967  8  5  5  81       
PG19 -18141.652811  12111.136065 -15185.873258    283.352319  8  5  6 115       
PG20 -10106.018811  11803.340239  21577.133593    448.106563  5  8  5  97       
PG21   2121.238518 -15397.951102 -20833.126432    154.195631  5  7  4 117       
PG22  17256.752345 -15854.415890 -11896.506871    435.485611  8  8  5  76       
PG23  20185.488138  15040.137977  -8695.127084      8.070224  4  6  6  96       
PG24   2778.936227  15721.911328 -21566.539046    -91.321854  4  5  7 106       
PG25  16603.767862  20924.472119   -146.598419    423.623469  7  5  6  65       
PG26  15313.836677  -5936.740526  20808.472932    241.788340  7  4  4  86       
PG27  12743.237686 -22422.037859   5099.558353     92.466864  7  4  3  79       
PG28  26013.722443  -5260.606348    906.666392     27.945025 10  8  7  73       
PG29   7561.685147  15406.820429  20197.966832   -588.356675  5  5  6 103       
PG30 -26344.336128    135.615383   4447.612495   -528.819357  2  5  7  88       
PG31  25570.849982  -6384.881935   4712.306494   -210.364363  7  7  6  67       
PG32  16921.226356  -5999.373855 -19338.147340   -408.844811  6  6  5  99       
*  2023  2 27 15 30  0.00000000
PG01  -4359.815481 -14138.569990 -22388.601409    207.951830  8  6  7 107       
PG02   8189.453620  13407.871268  22016.506571   -617.936410  4  4  4  88       
PG03 -11093.719312 -22228.062647  -9681.332974   -357.620067  8  6  4 102       
PG04  -1859.680313 -22614.102885  13723.364933    -18.288469  3  8  5 106       
PG05  -2506.737198  17174.175608  19900.725580   -117.536422  6  5  2 107       
PG06 -26061.707373   5385.830126    235.863480    576.876761  6  6  5 118       
PG07 -18598.714995  -8893.820140  17444.653862    232.997012  6  6  6  92       
PG08   5875.879965 -25566.670893  -2488.882263   -110.532927  6  4  6 122       
PG09 -10429.899867 -14010.347026  19922.586246   -210.290829  6  5  8  93       
PG10  20349.621249   6851.096149 -15659.607680    -26.482391  7  6  6 105       
PG11 -19717.907614  12166.314176  12968.342174   -115.867755  8  8  3 108       
PG12   7892.122125  22911.249276 -11267.943491   -345.453259  6  3  4  89       
PG13 -13294.663531  22665.204839   2880.015308    482.790274  6  6  5  97       
PG14 -20730.089164  -9398.046697 -13791.773343    -16.862394  7  4  4 101       
PG15  -2325.430359  26160.382698  -3243.395080     17.155754  4  7  6  83       
PG16   6704.834430 -14830.379260  20587.583061   -518.077890  4  7  2 103       
PG17 -15538.318459    346.216469 -21123.003260    702.598956  6  5  5 122       
PG18  21343.749340   6120.842381  14685.182789   -158.382470  7  6  4  84       
PG19 -17477.959611  10409.884979 -17153.263344    283.356792  8  6  6 120       
PG20 -11958.962541  10186.452162  21434.641342    448.104267  5  8  5  99       
PG21   4542.405848 -15917.144506 -19988.594547    154.195321  5  7  4 123       
PG22  16800.950872 -14343.131925 -14180.938466    435.492222  8  8  5  85       
PG23  20591.289235  15798.222118  -5990.831211      8.071845  5  6  5  85       
PG24    456.039775  16288.654614 -21276.397642    -91.335942  4  5  7 106       
PG25  16318.423485  20980.255122  -2964.643543    423.626283  7  5  6  73       
PG26  16887.331146  -4171.798176  20039.935776    241.788505  6  4  3  77       
PG27  12719.126764 -21603.353639   7864.427436     92.458893  7  5  3  76       
PG28  26011.053612  -5001.053664  -1950.595872     27.956387  9  8  8  87       
PG29   6543.274955  17408.572644  18881.084750   -588.358216  5  6  6  86       
PG30 -25751.239401   -259.011556   7133.274887   -528.818146  3  5  7  96       
PG31  25995.826210  -6210.140276   1928.539469   -210.365346  7  7  6  86       
PG32  16250.433471  -3779.957317 -20451.300467   -408.855020  5  6  5 108       
EOF
